NAVSTAR 77 (USA 289)    
1 43873U 18109A   23341.58704545  .00000077  00000+0  00000+0 0  9997
2 43873  55.2275 128.6403 0027666 190.3365 132.1360  2.00571905 36566
